0389P         2019 12 29.2831  1.663336  0.704423  249.2968  218.8378  160.0686  20191209  16.0  4.0  389P/Siding Spring                                       MPEC 2019-TG6
0390P         2020 03 22.2342  1.699840  0.706816  232.3360  152.2794   18.5594  20191209  12.0  4.0  390P/Gibbs                                               MPC118099
0391P         2018 03 17.4927  4.109579  0.120770  186.4949  124.7349   21.2761  20191209   8.0  4.0  391P/Kowalski                                            MPEC 2019-VB6
0392P         2020 03 31.8587  1.950212  0.682864   71.9994   24.8895    4.9295  20191209  14.5  4.0  392P/LINEAR                                              MPC118099
0001I         2017 09  9.4886  0.255240  1.199252  241.6845   24.5997  122.6778  20170904  23.0  2.0  1I/`Oumuamua                                             MPC107687
0002I         2019 12  8.5546  2.006587  3.356926  209.1250  308.1486   44.0521  20191223  11.0  4.0  2I/Borisov                                               MPC118097
